NORAD_CAT_ID,OBJECT_NAME,OBJECT_TYPE,EPOCH,MEAN_MOTION,ECCENTRICITY,INCLINATION,RA_OF_ASC_NODE,ARG_OF_PERICENTER,MEAN_ANOMALY,BSTAR,MEAN_MOTION_DOT,MEAN_MOTION_DDOT,TLE_LINE0,TLE_LINE1,TLE_LINE2,SEMIMAJOR_AXIS,PERIOD,APOGEE,PERIGEE,DECAYED
55777.0,STARLINK-5814,PAYLOAD,2023-09-13 16:06:25,14.98336458,0.0003184,70.0024,353.774,270.6799,89.3995,0.00012614,1.413e-05,0.0,0 STARLINK-5814,1 55777U 23028AN  23256.67113378  .00001413  00000-0  12614-3 0  9996,2 55777  70.0024 353.7740 0003184 270.6799  89.3995 14.98336458 30525,6950.173,96.107,574.251,569.825,0.0
55777.0,STARLINK-5814,PAYLOAD,2023-09-14 00:07:07,14.9832293,0.0003174,70.0029,352.9304,270.1803,89.8992,-0.00016207,-2.026e-05,0.0,0 STARLINK-5814,1 55777U 23028AN  23257.00494902 -.00002026  00000-0 -16207-3 0  9994,2 55777  70.0029 352.9304 0003174 270.1803  89.8992 14.98322930 30574,6950.215,96.107,574.286,569.874,0.0
55777.0,STARLINK-5814,PAYLOAD,2023-09-14 09:43:56,14.98312042,0.0003092,70.001,351.9183,267.5922,92.4883,-0.000191,-2.37e-05,0.0,0 STARLINK-5814,1 55777U 23028AN  23257.40551975 -.00002370  00000-0 -19100-3 0  9999,2 55777  70.0010 351.9183 0003092 267.5922  92.4883 14.98312042 30638,6950.248,96.108,574.262,569.964,0.0
55777.0,STARLINK-5814,PAYLOAD,2023-09-14 12:56:13,14.98310052,0.0003166,70.0019,351.5848,268.3028,91.7769,-0.000264,-3.24e-05,0.0,0 STARLINK-5814,1 55777U 23028AN  23257.53904474 -.00003240  00000-0 -26400-3 0  9997,2 55777  70.0019 351.5848 0003166 268.3028  91.7769 14.98310052 30655,6950.255,96.108,574.32,569.919,0.0
55777.0,STARLINK-5814,PAYLOAD,2023-09-14 16:08:29,14.98312514,0.0003104,70.0022,351.2483,268.1218,91.9586,-0.00021334,-2.636e-05,0.0,0 STARLINK-5814,1 55777U 23028AN  23257.67256326 -.00002636  00000-0 -21334-3 0  9997,2 55777  70.0022 351.2483 0003104 268.1218  91.9586 14.98312514 30678,6950.247,96.108,574.269,569.955,0.0
55777.0,STARLINK-5814,PAYLOAD,2023-09-15 09:45:57,14.98322345,0.0003009,70.0015,349.3937,267.0814,93.0001,-0.0001175,-1.494e-05,0.0,0 STARLINK-5814,1 55777U 23028AN  23258.40691955 -.00001494  00000-0 -11750-3 0  9992,2 55777  70.0015 349.3937 0003009 267.0814  93.0001 14.98322345 30786,6950.217,96.107,574.173,569.99,0.0
55777.0,STARLINK-5814,PAYLOAD,2023-09-15 12:58:13,14.983233,0.0002715,70.0037,349.0624,248.4455,111.6415,-6.7721e-05,-9.01e-06,0.0,0 STARLINK-5814,1 55777U 23028AN  23258.54043743 -.00000901  00000-0 -67721-4 0  9995,2 55777  70.0037 349.0624 0002715 248.4455 111.6415 14.98323300 30808,6950.214,96.107,573.966,570.192,0.0
55777.0,STARLINK-5814,PAYLOAD,2023-09-15 16:10:29,14.9833028,0.000296,70.002,348.723,263.0342,97.048,-3.6795e-05,-5.32e-06,0.0,0 STARLINK-5814,1 55777U 23028AN  23258.67395329 -.00000532  00000-0 -36795-4 0  9996,2 55777  70.0020 348.7230 0002960 263.0342  97.0480 14.98330280 30825,6950.192,96.107,574.114,570.0,0.0
55777.0,STARLINK-5814,PAYLOAD,2023-09-16 13:00:13,14.98327384,0.0002734,70.0031,346.536,260.8837,99.2013,0.00034491,4.025e-05,0.0,0 STARLINK-5814,1 55777U 23028AN  23259.54182602  .00004025  00000-0  34491-3 0  9990,2 55777  70.0031 346.5360 0002734 260.8837  99.2013 14.98327384 30951,6950.201,96.107,573.966,570.166,0.0
55777.0,STARLINK-5814,PAYLOAD,2023-09-16 16:12:29,14.9833136,0.0002827,70.003,346.1999,260.8157,99.2682,0.00033046,3.852e-05,0.0,0 STARLINK-5814,1 55777U 23028AN  23259.67534395  .00003852  00000-0  33046-3 0  9996,2 55777  70.0030 346.1999 0002827 260.8157  99.2682 14.98331360 30975,6950.189,96.107,574.019,570.089,0.0
55777.0,STARLINK-5814,PAYLOAD,2023-09-17 13:02:15,14.98329745,0.0002621,70.004,344.0126,247.5346,112.5536,5.7481e-05,5.93e-06,0.0,0 STARLINK-5814,1 55777U 23028AN  23260.54322958  .00000593  00000-0  57481-4 0  9993,2 55777  70.0040 344.0126 0002621 247.5346 112.5536 14.98329745 31106,6950.194,96.107,573.88,570.237,0.0
55777.0,STARLINK-5814,PAYLOAD,2023-09-17 16:14:30,14.98344144,0.0002418,70.003,343.6758,282.0084,78.0804,0.00018777,2.149e-05,0.0,0 STARLINK-5814,1 55777U 23028AN  23260.67674025  .00002149  00000-0  18777-3 0  9995,2 55777  70.0030 343.6758 0002418 282.0084  78.0804 14.98344144 31124,6950.149,96.106,573.695,570.334,0.0
55777.0,STARLINK-5814,PAYLOAD,2023-09-18 09:51:59,14.98335364,0.0003199,70.0019,341.8229,268.4092,91.6701,-0.00013869,-1.748e-05,0.0,0 STARLINK-5814,1 55777U 23028AN  23261.41110692 -.00001748  00000-0 -13869-3 0  9996,2 55777  70.0019 341.8229 0003199 268.4092  91.6701 14.98335364 31231,6950.176,96.107,574.265,569.818,0.0
55777.0,STARLINK-5814,PAYLOAD,2023-09-18 13:04:15,14.98344489,0.0002963,70.0024,341.4865,261.8832,98.1991,-0.00029292,-3.588e-05,0.0,0 STARLINK-5814,1 55777U 23028AN  23261.54462411 -.00003588  00000-0 -29292-3 0  9990,2 55777  70.0024 341.4865 0002963 261.8832  98.1991 14.98344489 31259,6950.148,96.106,574.072,569.954,0.0
55777.0,STARLINK-5814,PAYLOAD,2023-09-18 14:40:23,14.98335875,0.0003013,70.0024,341.3186,265.3599,94.7216,-0.00011751,-1.495e-05,0.0,0 STARLINK-5814,1 55777U 23028AN  23261.61138523 -.00001495  00000-0 -11751-3 0  9998,2 55777  70.0024 341.3186 0003013 265.3599  94.7216 14.98335875 31262,6950.175,96.107,574.134,569.946,0.0
55777.0,STARLINK-5814,PAYLOAD,2023-09-19 09:53:59,14.98336647,0.0003252,70.0017,339.2978,270.8194,89.2592,2.1042e-06,-6.8e-07,0.0,0 STARLINK-5814,1 55777U 23028AN  23262.41249730 -.00000068  00000-0  21042-5 0  9990,2 55777  70.0017 339.2978 0003252 270.8194  89.2592 14.98336647 31383,6950.172,96.107,574.298,569.777,0.0
55777.0,STARLINK-5814,PAYLOAD,2023-09-19 14:42:23,14.9834205,0.0003138,70.0018,338.7917,273.1184,86.9616,9.2181e-05,1.007e-05,0.0,0 STARLINK-5814,1 55777U 23028AN  23262.61277038  .00001007  00000-0  92181-4 0  9998,2 55777  70.0018 338.7917 0003138 273.1184  86.9616 14.98342050 31419,6950.156,96.106,574.202,569.84,0.0
55777.0,STARLINK-5814,PAYLOAD,2023-09-20 09:56:01,14.98318301,0.000321,70.0017,336.7742,270.617,89.4621,-0.0001054,-1.35e-05,0.0,0 STARLINK-5814,1 55777U 23028AN  23263.41391080 -.00001350  00000-0 -10540-3 0  9992,2 55777  70.0017 336.7742 0003210 270.6170  89.4621 14.98318301 31539,6950.229,96.108,574.325,569.863,0.0
55777.0,STARLINK-5814,PAYLOAD,2023-09-20 13:08:18,14.9831726,0.0003245,70.0017,336.4372,273.684,86.3947,-0.00010895,-1.392e-05,0.0,0 STARLINK-5814,1 55777U 23028AN  23263.54743269 -.00001392  00000-0 -10895-3 0  9995,2 55777  70.0017 336.4372 0003245 273.6840  86.3947 14.98317260 31552,6950.232,96.108,574.353,569.842,0.0
55777.0,STARLINK-5814,PAYLOAD,2023-09-20 14:44:26,14.98316773,0.0003141,70.0019,336.2694,271.2085,88.8714,-0.00010778,-1.378e-05,0.0,0 STARLINK-5814,1 55777U 23028AN  23263.61419342 -.00001378  00000-0 -10778-3 0  9999,2 55777  70.0019 336.2694 0003141 271.2085  88.8714 14.98316773 31567,6950.234,96.108,574.282,569.916,0.0
55777.0,STARLINK-5814,PAYLOAD,2023-09-21 09:58:02,14.98329239,0.0003248,70.0014,334.2482,274.4517,85.6271,-5.6691e-05,-7.69e-06,0.0,0 STARLINK-5814,1 55777U 23028AN  23264.41530661 -.00000769  00000-0 -56691-4 0  9994,2 55777  70.0014 334.2482 0003248 274.4517  85.6271 14.98329239 31685,6950.195,96.107,574.318,569.803,0.0
55777.0,STARLINK-5814,PAYLOAD,2023-09-21 13:10:18,14.98332808,0.0003385,70.001,333.9118,272.881,87.1962,-7.5823e-05,-9.98e-06,0.0,0 STARLINK-5814,1 55777U 23028AN  23264.54882484 -.00000998  00000-0 -75823-4 0  9993,2 55777  70.0010 333.9118 0003385 272.8810  87.1962 14.98332808 31706,6950.184,96.107,574.402,569.697,0.0
55777.0,STARLINK-5814,PAYLOAD,2023-09-21 14:46:26,14.98330365,0.0002874,70.0023,333.7441,269.9925,90.0904,-4.9808e-05,-6.87e-06,0.0,0 STARLINK-5814,1 55777U 23028AN  23264.61558556 -.00000687  00000-0 -49808-4 0  9990,2 55777  70.0023 333.7441 0002874 269.9925  90.0904 14.98330365 31719,6950.192,96.107,574.054,570.059,0.0
55777.0,STARLINK-5814,PAYLOAD,2023-09-22 10:00:03,14.98325232,0.0002896,70.0018,331.7238,265.0378,95.045,0.00019873,2.279e-05,0.0,0 STARLINK-5814,1 55777U 23028AN  23265.41670200  .00002279  00000-0  19873-3 0  9995,2 55777  70.0018 331.7238 0002896 265.0378  95.0450 14.98325232 31839,6950.208,96.107,574.085,570.06,0.0
55777.0,STARLINK-5814,PAYLOAD,2023-09-22 13:12:19,14.98327957,0.0002944,70.002,331.3874,268.6158,91.4663,0.00022059,2.54e-05,0.0,0 STARLINK-5814,1 55777U 23028AN  23265.55021995  .00002540  00000-0  22059-3 0  9992,2 55777  70.0020 331.3874 0002944 268.6158  91.4663 14.98327957 31857,6950.199,96.107,574.11,570.018,0.0
55777.0,STARLINK-5814,PAYLOAD,2023-09-22 21:12:58,14.98363007,0.0003052,70.003,330.5443,282.7431,77.3387,-0.00048296,-5.856e-05,0.0,0 STARLINK-5814,1 55777U 23028AN  23265.88401459 -.00005856  00000-0 -48296-3 0  9991,2 55777  70.0030 330.5443 0003052 282.7431  77.3387 14.98363007 31901,6950.091,96.105,574.077,569.835,0.0
55777.0,STARLINK-5814,PAYLOAD,2023-09-23 11:38:12,14.98330207,0.0003084,70.0016,329.0304,274.559,85.5217,2.3503e-05,1.87e-06,0.0,0 STARLINK-5814,1 55777U 23028AN  23266.48486248  .00000187  00000-0  23503-4 0  9992,2 55777  70.0016 329.0304 0003084 274.5590  85.5217 14.98330207 31992,6950.192,96.107,574.201,569.914,0.0
55777.0,STARLINK-5814,PAYLOAD,2023-09-23 13:14:19,14.98333353,0.0003266,70.0012,328.8628,273.845,86.2336,1.704e-05,1.1e-06,0.0,0 STARLINK-5814,1 55777U 23028AN  23266.55162021  .00000110  00000-0  17040-4 0  9995,2 55777  70.0012 328.8628 0003266 273.8450  86.2336 14.98333353 32001,6950.183,96.107,574.317,569.778,0.0
55777.0,STARLINK-5814,PAYLOAD,2023-09-24 13:16:21,14.98331193,0.0003057,70.0014,326.338,269.2124,90.8685,-6.3969e-05,-8.56e-06,0.0,0 STARLINK-5814,1 55777U 23028AN  23267.55302191 -.00000856  00000-0 -63969-4 0  9990,2 55777  70.0014 326.3380 0003057 269.2124  90.8685 14.98331193 32150,6950.189,96.107,574.179,569.93,0.0
55777.0,STARLINK-5814,PAYLOAD,2023-09-25 13:18:21,14.98335974,0.0003046,70.0012,323.8129,269.6264,90.4546,6.1801e-05,6.45e-06,0.0,0 STARLINK-5814,1 55777U 23028AN  23268.55441363  .00000645  00000-0  61801-4 0  9993,2 55777  70.0012 323.8129 0003046 269.6264  90.4546 14.98335974 32308,6950.174,96.107,574.156,569.922,0.0
